OBJECT_NAME,OBJECT_ID,EPOCH,MEAN_MOTION,ECCENTRICITY,INCLINATION,RA_OF_ASC_NODE,ARG_OF_PERICENTER,MEAN_ANOMALY,EPHEMERIS_TYPE,CLASSIFICATION_TYPE,NORAD_CAT_ID,ELEMENT_SET_NO,REV_AT_EPOCH,BSTAR,MEAN_MOTION_DOT,MEAN_MOTION_DDOT
STARLINK-6220,2023-064AL,2026-07-14T08:35:08.386080,14.98331898,.00030337,69.9998,165.0502,270.0522,90.0289,0,U,56482,999,17471,.17754507E-4,.119E-5,0
STARLINK-5868,2023-064AM,2026-07-14T08:29:07.599552,14.98331313,.00033293,70.0001,165.0318,263.7048,96.3732,0,U,56483,999,17471,.5915102E-5,-.22E-6,0
STARLINK-6221,2023-064AN,2026-07-14T08:23:08.477952,14.98318868,.00035771,70.0000,165.0204,270.1893,89.8857,0,U,56484,999,17470,.46323334E-4,.46E-5,0
STARLINK-6210,2023-064AP,2026-07-14T07:59:06.255456,14.98321758,.00032564,69.9997,164.9615,263.6336,96.4453,0,U,56485,999,17471,.11981206E-3,.1337E-4,0
STARLINK-6196,2023-064AR,2026-07-14T05:58:35.072256,14.98341432,.00028036,69.9998,145.2066,271.0219,89.0619,0,U,56487,999,17519,.73771453E-4,.788E-5,0
STARLINK-6204,2023-064AS,2026-07-14T13:23:13.626240,14.98338377,.0002925,69.9999,144.6745,271.0178,89.0646,0,U,56488,999,17523,.64566E-5,-.16E-6,0
STARLINK-5923,2023-064AT,2026-07-14T06:40:39.491904,14.98335036,.00027946,70.0003,145.3039,272.7898,87.2941,0,U,56489,999,17519,-.3988379E-4,-.569E-5,0
STARLINK-5873,2023-064AU,2026-07-14T13:35:14.629920,14.98329850,.0003198,69.9999,144.7028,266.7132,93.3661,0,U,56490,999,17523,-.13563E-4,-.255E-5,0
STARLINK-5842,2023-064AV,2026-07-14T06:34:38.897184,14.98339319,.00029674,69.9999,145.2888,266.3322,93.7498,0,U,56491,999,17519,.38312604E-4,.364E-5,0
STARLINK-5846,2023-064AW,2026-07-14T06:28:36.034464,14.98347809,.00032629,69.9995,145.2747,266.2681,93.8105,0,U,56492,999,17519,.17261284E-3,.1968E-4,0
STARLINK-5841,2023-064AX,2026-07-14T20:35:29.213664,14.98329718,.0002839,69.9999,123.8335,268.7651,91.3182,0,U,56493,999,17577,-.10581E-4,-.219E-5,0
STARLINK-5530,2023-064AY,2026-07-14T06:28:49.881792,14.98360632,.00039851,70.0006,145.2776,273.4246,86.6457,0,U,56494,999,17518,.41797368E-3,.4902E-4,0
STARLINK-5529,2023-064AZ,2026-07-14T20:41:49.144704,14.98329791,.0002921,70.0000,143.7307,270.0267,90.0557,0,U,56495,999,17528,.46412E-5,-.38E-6,0
STARLINK-5526,2023-064BA,2026-07-14T06:10:36.087168,14.98328577,.00042399,70.0001,145.2312,264.2022,95.8653,0,U,56496,999,17519,.21493466E-4,.163E-5,0
STARLINK-5527,2023-064BB,2026-07-14T20:30:02.054016,14.98328745,.0003553,70.0000,143.7026,262.3896,97.6859,0,U,56497,999,17528,.23583E-4,.188E-5,0
STARLINK-5522,2023-064BC,2026-07-14T06:22:36.597504,14.98313055,.00028938,69.9998,145.2595,269.3216,90.7612,0,U,56498,999,17519,.21496404E-4,.163E-5,0
STARLINK-5775,2023-065A,2026-07-14T08:28:41.980224,15.27574795,.00009089,42.9997,216.9590,261.8638,98.2110,0,U,56503,999,17597,-.7999556E-5,-.482E-5,0
STARLINK-5716,2023-065B,2026-07-14T08:49:03.354816,15.27581064,.00005459,43.0005,217.0623,280.9095,79.1695,0,U,56504,999,17597,-.10062492E-3,-.303E-4,0
STARLINK-5763,2023-065C,2026-07-14T07:51:54.200160,15.27576835,.00015521,43.0037,217.6229,277.1463,82.9212,0,U,56505,999,17596,.53708539E-4,.1216E-4,0
STARLINK-5340,2023-065D,2026-07-14T07:26:00.895776,15.27576071,.00012786,43.0011,206.1760,260.2999,99.7708,0,U,56506,999,17609,.2819677E-4,.514E-5,0
STARLINK-5333,2023-065E,2026-07-14T07:52:09.474816,15.27555601,.00016045,43.0036,184.5398,275.3397,84.7271,0,U,56507,999,17634,.24016885E-3,.6348E-4,0
STARLINK-5335,2023-065F,2026-07-14T08:08:22.507296,15.27562862,.00014343,42.9996,216.8473,263.0929,96.9760,0,U,56508,999,17597,.32896271E-4,.643E-5,0
STARLINK-5334,2023-065G,2026-07-14T02:08:22.203168,15.27577694,.00013932,43.0011,218.4101,272.4690,87.6002,0,U,56509,999,17593,.5898615E-5,-.1E-5,0
STARLINK-5339,2023-065H,2026-07-14T03:31:26.844672,15.27582236,.00016782,43.0002,217.9887,267.1799,92.8861,0,U,56510,999,17594,.39671495E-4,.83E-5,0
STARLINK-5351,2023-065J,2026-07-14T08:34:14.891520,15.27574968,.00011423,42.9999,216.9754,271.7847,88.2874,0,U,56511,999,17597,.7817599E-5,-.47E-6,0
STARLINK-5349,2023-065K,2026-07-14T13:01:54.791328,15.27577734,.0001265,43.0007,215.7904,269.9463,90.1244,0,U,56512,999,17600,.28518E-5,-.184E-5,0
STARLINK-5329,2023-065L,2026-07-14T08:39:48.048192,15.27572874,.00009595,43.0008,217.0092,268.2682,91.8060,0,U,56513,999,17597,-.6255644E-5,-.434E-5,0
STARLINK-5348,2023-065N,2026-07-14T08:45:21.178080,15.27573972,.00008404,43.0015,217.0366,284.4956,75.5802,0,U,56515,999,17597,-.17543445E-4,-.744E-5,0
STARLINK-5342,2023-065P,2026-07-14T08:30:32.802048,15.27577061,.00013195,43.0001,216.9617,274.4760,85.5941,0,U,56516,999,17597,.4485972E-5,-.139E-5,0
STARLINK-5345,2023-065Q,2026-07-14T02:45:22.482720,15.27577699,.0001098,43.0041,218.5916,267.8999,92.1727,0,U,56517,999,17593,-.5042868E-5,-.401E-5,0
