[ {"name": "STARLINK-6220", "line1": "1 56482U 23064AL  26195.35773595  .00000119  00000+0  17755-4 0  9996", "line2": "2 56482  69.9998 165.0502 0003033 270.0522  90.0289 14.98331898174715"}, {"name": "STARLINK-5868", "line1": "1 56483U 23064AM  26195.35356018 -.00000022  00000+0  59151-5 0  9995", "line2": "2 56483  70.0001 165.0318 0003329 263.7048  96.3732 14.98331313174713"}, {"name": "STARLINK-6221", "line1": "1 56484U 23064AN  26195.34940368  .00000460  00000+0  46323-4 0  9993", "line2": "2 56484  70.0000 165.0204 0003577 270.1893  89.8857 14.98318868174706"}, {"name": "STARLINK-6210", "line1": "1 56485U 23064AP  26195.33271129  .00001337  00000+0  11981-3 0  9990", "line2": "2 56485  69.9997 164.9615 0003256 263.6336  96.4453 14.98321758174715"}, {"name": "STARLINK-6196", "line1": "1 56487U 23064AR  26195.24901704  .00000788  00000+0  73771-4 0  9996", "line2": "2 56487  69.9998 145.2066 0002803 271.0219  89.0619 14.98341432175196"}, {"name": "STARLINK-6204", "line1": "1 56488U 23064AS  26195.55779660 -.00000016  00000+0  64566-5 0  9993", "line2": "2 56488  69.9999 144.6745 0002925 271.0178  89.0646 14.98338377175233"}, {"name": "STARLINK-5923", "line1": "1 56489U 23064AT  26195.27823486 -.00000569  00000+0 -39884-4 0  9997", "line2": "2 56489  70.0003 145.3039 0002794 272.7898  87.2941 14.98335036175190"}, {"name": "STARLINK-5873", "line1": "1 56490U 23064AU  26195.56614155 -.00000255  00000+0 -13563-4 0  9990", "line2": "2 56490  69.9999 144.7028 0003198 266.7132  93.3661 14.98329850175236"}, {"name": "STARLINK-5842", "line1": "1 56491U 23064AV  26195.27406131  .00000364  00000+0  38313-4 0  9991", "line2": "2 56491  69.9999 145.2888 0002967 266.3322  93.7498 14.98339319175195"}, {"name": "STARLINK-5846", "line1": "1 56492U 23064AW  26195.26986151  .00001968  00000+0  17261-3 0  9995", "line2": "2 56492  69.9995 145.2747 0003262 266.2681  93.8105 14.98347809175191"}, {"name": "STARLINK-5841", "line1": "1 56493U 23064AX  26195.85797701 -.00000219  00000+0 -10581-4 0  9991", "line2": "2 56493  69.9999 123.8335 0002839 268.7651  91.3182 14.98329718175775"}, {"name": "STARLINK-5530", "line1": "1 56494U 23064AY  26195.27002178  .00004902  00000+0  41797-3 0  9998", "line2": "2 56494  70.0006 145.2776 0003985 273.4246  86.6457 14.98360632175188"}, {"name": "STARLINK-5529", "line1": "1 56495U 23064AZ  26195.86237436 -.00000038  00000+0  46412-5 0  9999", "line2": "2 56495  70.0000 143.7307 0002921 270.0267  90.0557 14.98329791175283"}, {"name": "STARLINK-5526", "line1": "1 56496U 23064BA  26195.25736212  .00000163  00000+0  21493-4 0  9998", "line2": "2 56496  70.0001 145.2312 0004239 264.2022  95.8653 14.98328577175197"}, {"name": "STARLINK-5527", "line1": "1 56497U 23064BB  26195.85419044  .00000188  00000+0  23583-4 0  9995", "line2": "2 56497  70.0000 143.7026 0003553 262.3896  97.6859 14.98328745175283"}, {"name": "STARLINK-5522", "line1": "1 56498U 23064BC  26195.26570136  .00000163  00000+0  21496-4 0  9995", "line2": "2 56498  69.9998 145.2595 0002893 269.3216  90.7612 14.98313055175193"}, {"name": "STARLINK-5775", "line1": "1 56503U 23065A   26195.35326366 -.00000482  00000+0 -79996-5 0  9992", "line2": "2 56503  42.9997 216.9590 0000908 261.8638  98.2110 15.27574795175976"}, {"name": "STARLINK-5716", "line1": "1 56504U 23065B   26195.36739994 -.00003030  00000+0 -10062-3 0  9998", "line2": "2 56504  43.0005 217.0623 0000545 280.9095  79.1695 15.27581064175977"}, {"name": "STARLINK-5763", "line1": "1 56505U 23065C   26195.32771065  .00001216  00000+0  53709-4 0  9998", "line2": "2 56505  43.0037 217.6229 0001552 277.1463  82.9212 15.27576835175963"}, {"name": "STARLINK-5340", "line1": "1 56506U 23065D   26195.30973259  .00000514  00000+0  28197-4 0  9999", "line2": "2 56506  43.0011 206.1760 0001278 260.2999  99.7708 15.27576071176094"}, {"name": "STARLINK-5333", "line1": "1 56507U 23065E   26195.32788744  .00006348  00000+0  24017-3 0  9992", "line2": "2 56507  43.0036 184.5398 0001604 275.3397  84.7271 15.27555601176343"}, {"name": "STARLINK-5335", "line1": "1 56508U 23065F   26195.33914939  .00000643  00000+0  32896-4 0  9998", "line2": "2 56508  42.9996 216.8473 0001434 263.0929  96.9760 15.27562862175979"}, {"name": "STARLINK-5334", "line1": "1 56509U 23065G   26195.08914587 -.00000100  00000+0  58986-5 0  9998", "line2": "2 56509  43.0011 218.4101 0001393 272.4690  87.6002 15.27577694175930"}, {"name": "STARLINK-5339", "line1": "1 56510U 23065H   26195.14683848  .00000830  00000+0  39671-4 0  9998", "line2": "2 56510  43.0002 217.9887 0001678 267.1799  92.8861 15.27582236175944"}, {"name": "STARLINK-5351", "line1": "1 56511U 23065J   26195.35711680 -.00000047  00000+0  78176-5 0  9993", "line2": "2 56511  42.9999 216.9754 0001142 271.7847  88.2874 15.27574968175970"}, {"name": "STARLINK-5349", "line1": "1 56512U 23065K   26195.54299527 -.00000184  00000+0  28518-5 0  9993", "line2": "2 56512  43.0007 215.7904 0001265 269.9463  90.1244 15.27577734176008"}, {"name": "STARLINK-5329", "line1": "1 56513U 23065L   26195.36097278 -.00000434  00000+0 -62556-5 0  9992", "line2": "2 56513  43.0008 217.0092 0000959 268.2682  91.8060 15.27572874175976"}, {"name": "STARLINK-5348", "line1": "1 56515U 23065N   26195.36482845 -.00000744  00000+0 -17543-4 0  9991", "line2": "2 56515  43.0015 217.0366 0000840 284.4956  75.5802 15.27573972175976"}, {"name": "STARLINK-5342", "line1": "1 56516U 23065P   26195.35454632 -.00000139  00000+0  44860-5 0  9994", "line2": "2 56516  43.0001 216.9617 0001319 274.4760  85.5941 15.27577061175971"}, {"name": "STARLINK-5345", "line1": "1 56517U 23065Q   26195.11484355 -.00000401  00000+0 -50429-5 0  9995", "line2": "2 56517  43.0041 218.5916 0001098 267.8999  92.1727 15.27577699175939"}]